{
  "type": "FeatureCollection",
  "features": [
    {
      "type": "Feature",
      "properties": {
        "norad_id": 30290,
        "name": "FENGYUN 1C DEB",
        "group": "fengyun-1c-debris",
        "lat": -29.706369965870742,
        "lon": -75.96429617964327,
        "alt_km": 659.0716564686281,
        "timestamp": "2025-12-27T10:28:59.069797+00:00",
        "meta_object_name": "FENGYUN 1C DEB",
        "meta_object_id": "1999-025ZB",
        "meta_epoch": "2025-12-27T02:11:37.468032",
        "meta_mean_motion": 14.75815185,
        "meta_eccentricity": 0.0017513,
        "meta_inclination": 102.6208,
        "meta_ra_of_asc_node": 110.8435,
        "meta_arg_of_pericenter": 3.0742,
        "meta_mean_anomaly": 173.323,
        "meta_ephemeris_type": 0,
        "meta_classification_type": "U",
        "meta_norad_cat_id": 30290,
        "meta_element_set_no": 999,
        "meta_rev_at_epoch": 98090,
        "meta_bstar": 0.0060991,
        "meta_mean_motion_dot": 0.00042104,
        "meta_mean_motion_ddot": 0,
        "tle_line1": "1 30290U 99025ZB  25361.09140588  .00042104  00000+0  60991-2 0  9998",
        "tle_line2": "2 30290 102.6208 110.8435 0017513   3.0742 173.3230 14.75815185980900"
      },
      "geometry": {
        "type": "Point",
        "coordinates": [
          -75.96429617964327,
          -29.706369965870742
        ]
      }
    },
    {
      "type": "Feature",
      "properties": {
        "norad_id": 30291,
        "name": "FENGYUN 1C DEB",
        "group": "fengyun-1c-debris",
        "lat": -41.607195048350455,
        "lon": -105.25570148247972,
        "alt_km": 638.4760796607134,
        "timestamp": "2025-12-27T10:28:59.069807+00:00",
        "meta_object_name": "FENGYUN 1C DEB",
        "meta_object_id": "1999-025ZC",
        "meta_epoch": "2025-12-27T04:46:11.059104",
        "meta_mean_motion": 14.55616988,
        "meta_eccentricity": 0.0110187,
        "meta_inclination": 97.2322,
        "meta_ra_of_asc_node": 248.0629,
        "meta_arg_of_pericenter": 333.8684,
        "meta_mean_anomaly": 177.823,
        "meta_ephemeris_type": 0,
        "meta_classification_type": "U",
        "meta_norad_cat_id": 30291,
        "meta_element_set_no": 999,
        "meta_rev_at_epoch": 97918,
        "meta_bstar": 0.0037734,
        "meta_mean_motion_dot": 0.00017869,
        "meta_mean_motion_ddot": 0,
        "tle_line1": "1 30291U 99025ZC  25361.19873911  .00017869  00000+0  37734-2 0  9992",
        "tle_line2": "2 30291  97.2322 248.0629 0110187 333.8684 177.8230 14.55616988979181"
      },
      "geometry": {
        "type": "Point",
        "coordinates": [
          -105.25570148247972,
          -41.607195048350455
        ]
      }
    },
    {
      "type": "Feature",
      "properties": {
        "norad_id": 30293,
        "name": "FENGYUN 1C DEB",
        "group": "fengyun-1c-debris",
        "lat": -56.197467678264026,
        "lon": -0.3223458834454574,
        "alt_km": 788.7938123875128,
        "timestamp": "2025-12-27T10:28:59.069818+00:00",
        "meta_object_name": "FENGYUN 1C DEB",
        "meta_object_id": "1999-025ZE",
        "meta_epoch": "2025-12-26T18:33:00.872928",
        "meta_mean_motion": 14.49020799,
        "meta_eccentricity": 0.00767886,
        "meta_inclination": 99.2549,
        "meta_ra_of_asc_node": 193.0461,
        "meta_arg_of_pericenter": 73.2372,
        "meta_mean_anomaly": 302.7406,
        "meta_ephemeris_type": 0,
        "meta_classification_type": "U",
        "meta_norad_cat_id": 30293,
        "meta_element_set_no": 999,
        "meta_rev_at_epoch": 99180,
        "meta_bstar": 0.00072284807,
        "meta_mean_motion_dot": 2.792e-05,
        "meta_mean_motion_ddot": 0,
        "tle_line1": "1 30293U 99025ZE  25360.77292677  .00002792  00000+0  72285-3 0  9991",
        "tle_line2": "2 30293  99.2549 193.0461 0076788  73.2372 302.7406 14.49020799991805"
      },
      "geometry": {
        "type": "Point",
        "coordinates": [
          -0.3223458834454574,
          -56.197467678264026
        ]
      }
    },
    {
      "type": "Feature",
      "properties": {
        "norad_id": 30294,
        "name": "FENGYUN 1C DEB",
        "group": "fengyun-1c-debris",
        "lat": 44.198271460146124,
        "lon": 177.43767275979653,
        "alt_km": 861.2753667981342,
        "timestamp": "2025-12-27T10:28:59.069828+00:00",
        "meta_object_name": "FENGYUN 1C DEB",
        "meta_object_id": "1999-025ZF",
        "meta_epoch": "2025-12-26T19:21:09.355392",
        "meta_mean_motion": 14.34987191,
        "meta_eccentricity": 0.01970827,
        "meta_inclination": 98.3573,
        "meta_ra_of_asc_node": 348.6088,
        "meta_arg_of_pericenter": 267.4966,
        "meta_mean_anomaly": 214.4333,
        "meta_ephemeris_type": 0,
        "meta_classification_type": "U",
        "meta_norad_cat_id": 30294,
        "meta_element_set_no": 999,
        "meta_rev_at_epoch": 98738,
        "meta_bstar": 0.0003497717,
        "meta_mean_motion_dot": 1.19e-05,
        "meta_mean_motion_ddot": 0,
        "tle_line1": "1 30294U 99025ZF  25360.80635828  .00001190  00000+0  34977-3 0  9992",
        "tle_line2": "2 30294  98.3573 348.6088 0197082 267.4966 214.4333 14.34987191987381"
      },
      "geometry": {
        "type": "Point",
        "coordinates": [
          177.43767275979653,
          44.198271460146124
        ]
      }
    },
    {
      "type": "Feature",
      "properties": {
        "norad_id": 30295,
        "name": "FENGYUN 1C DEB",
        "group": "fengyun-1c-debris",
        "lat": -80.28837638270281,
        "lon": 84.43254048358264,
        "alt_km": 854.2395309653975,
        "timestamp": "2025-12-27T10:28:59.069838+00:00",
        "meta_object_name": "FENGYUN 1C DEB",
        "meta_object_id": "1999-025ZG",
        "meta_epoch": "2025-12-26T18:18:17.510688",
        "meta_mean_motion": 14.25055296,
        "meta_eccentricity": 0.00941017,
        "meta_inclination": 98.5073,
        "meta_ra_of_asc_node": 22.7839,
        "meta_arg_of_pericenter": 41.9117,
        "meta_mean_anomaly": 17.4173,
        "meta_ephemeris_type": 0,
        "meta_classification_type": "U",
        "meta_norad_cat_id": 30295,
        "meta_element_set_no": 999,
        "meta_rev_at_epoch": 98376,
        "meta_bstar": 0.00016897847,
        "meta_mean_motion_dot": 3.73e-06,
        "meta_mean_motion_ddot": 0,
        "tle_line1": "1 30295U 99025ZG  25360.76270267  .00000373  00000+0  16898-3 0  9994",
        "tle_line2": "2 30295  98.5073  22.7839 0094101  41.9117  17.4173 14.25055296983767"
      },
      "geometry": {
        "type": "Point",
        "coordinates": [
          84.43254048358264,
          -80.28837638270281
        ]
      }
    },
    {
      "type": "Feature",
      "properties": {
        "norad_id": 30297,
        "name": "FENGYUN 1C DEB",
        "group": "fengyun-1c-debris",
        "lat": 46.17758866899777,
        "lon": -56.29124110924551,
        "alt_km": 567.6675459040061,
        "timestamp": "2025-12-27T10:28:59.069849+00:00",
        "meta_object_name": "FENGYUN 1C DEB",
        "meta_object_id": "1999-025ZJ",
        "meta_epoch": "2025-12-27T03:35:01.298112",
        "meta_mean_motion": 14.21980314,
        "meta_eccentricity": 0.0379521,
        "meta_inclination": 98.8138,
        "meta_ra_of_asc_node": 312.7244,
        "meta_arg_of_pericenter": 74.087,
        "meta_mean_anomaly": 303.9733,
        "meta_ephemeris_type": 0,
        "meta_classification_type": "U",
        "meta_norad_cat_id": 30297,
        "meta_element_set_no": 999,
        "meta_rev_at_epoch": 95357,
        "meta_bstar": 0.0021904,
        "meta_mean_motion_dot": 0.00010114,
        "meta_mean_motion_ddot": 0,
        "tle_line1": "1 30297U 99025ZJ  25361.14932058  .00010114  00000+0  21904-2 0  9999",
        "tle_line2": "2 30297  98.8138 312.7244 0379521  74.0870 303.9733 14.21980314953576"
      },
      "geometry": {
        "type": "Point",
        "coordinates": [
          -56.29124110924551,
          46.17758866899777
        ]
      }
    },
    {
      "type": "Feature",
      "properties": {
        "norad_id": 30298,
        "name": "FENGYUN 1C DEB",
        "group": "fengyun-1c-debris",
        "lat": 12.301883246180632,
        "lon": 90.64435678198885,
        "alt_km": 816.9551639876363,
        "timestamp": "2025-12-27T10:28:59.069859+00:00",
        "meta_object_name": "FENGYUN 1C DEB",
        "meta_object_id": "1999-025ZK",
        "meta_epoch": "2025-12-26T19:45:58.683168",
        "meta_mean_motion": 14.20042189,
        "meta_eccentricity": 0.00471302,
        "meta_inclination": 99.0006,
        "meta_ra_of_asc_node": 92.0016,
        "meta_arg_of_pericenter": 88.4879,
        "meta_mean_anomaly": 31.5814,
        "meta_ephemeris_type": 0,
        "meta_classification_type": "U",
        "meta_norad_cat_id": 30298,
        "meta_element_set_no": 999,
        "meta_rev_at_epoch": 97034,
        "meta_bstar": 0.0017589844,
        "meta_mean_motion_dot": 3.742e-05,
        "meta_mean_motion_ddot": 0,
        "tle_line1": "1 30298U 99025ZK  25360.82359587  .00003742  00000+0  17590-2 0  9999",
        "tle_line2": "2 30298  99.0006  92.0016 0047130  88.4879  31.5814 14.20042189970341"
      },
      "geometry": {
        "type": "Point",
        "coordinates": [
          90.64435678198885,
          12.301883246180632
        ]
      }
    }
  ]
}